[Satellite]
VERSION=1.1
NAME=LEMUR-2-DUNLOP
NICKNAME=LEMUR-2-DUNLOP
TLE1=1 43053U 17071S   18021.10784734  .00005467  00000-0  15407-3 0  9999
TLE2=2 43053  51.6401  37.4590 0000728 223.8018 136.2908 15.38025319  6937
